[{"OBJECT_NAME":"STARLINK-4396","OBJECT_ID":"2022-104BB","EPOCH":"2026-03-09T16:43:25.952160","MEAN_MOTION":15.08839215,"ECCENTRICITY":0.00012514,"INCLINATION":53.2157,"RA_OF_ASC_NODE":224.2768,"ARG_OF_PERICENTER":63.2686,"MEAN_ANOMALY":296.8434,"EPHEMERIS_TYPE":0,"CLASSIFICATION_TYPE":"U","NORAD_CAT_ID":53637,"ELEMENT_SET_NO":999,"REV_AT_EPOCH":19622,"BSTAR":0.00012932129,"MEAN_MOTION_DOT":1.771e-5,"MEAN_MOTION_DDOT":0},{"OBJECT_NAME":"CZ-4B DEB","OBJECT_ID":"2008-053M","EPOCH":"2026-03-05T07:18:48.921696","MEAN_MOTION":15.08195439,"ECCENTRICITY":0.0017401,"INCLINATION":97.8281,"RA_OF_ASC_NODE":90.6528,"ARG_OF_PERICENTER":258.7901,"MEAN_ANOMALY":101.1371,"EPHEMERIS_TYPE":0,"CLASSIFICATION_TYPE":"U","NORAD_CAT_ID":44593,"ELEMENT_SET_NO":999,"REV_AT_EPOCH":67199,"BSTAR":0.00019653,"MEAN_MOTION_DOT":2.982e-5,"MEAN_MOTION_DDOT":0}]
